NORAD_CAT_ID,OBJECT_NAME,OBJECT_TYPE,EPOCH,MEAN_MOTION,ECCENTRICITY,INCLINATION,RA_OF_ASC_NODE,ARG_OF_PERICENTER,MEAN_ANOMALY,BSTAR,MEAN_MOTION_DOT,MEAN_MOTION_DDOT,TLE_LINE0,TLE_LINE1,TLE_LINE2,SEMIMAJOR_AXIS,PERIOD,APOGEE,PERIGEE,DECAYED
52543.0,STARLINK-3926,PAYLOAD,2022-05-27 22:00:01,15.73179554,0.0002256,53.2177,223.8637,25.6277,133.969,7.492699999999999e-06,4.29e-06,0.0,0 STARLINK-3926,1 52543U 22051L   22147.91668981  .00000429  00000-0  74927-5 0  9992,2 52543  53.2177 223.8637 0002256  25.6277 133.9690 15.73179554  2742,6727.953,91.534,351.336,348.301,0.0
52543.0,STARLINK-3926,PAYLOAD,2022-05-28 06:00:02,15.73230969,0.0002168,53.218,222.2136,24.1706,224.3814,-0.00020197,-0.0002891,0.0,0 STARLINK-3926,1 52543U 22051L   22148.25002315 -.00028910  00000-0 -20197-3 0  9998,2 52543  53.2180 222.2136 0002168  24.1706 224.3814 15.73230969  2792,6727.807,91.531,351.13,348.213,0.0
52543.0,STARLINK-3926,PAYLOAD,2022-05-28 14:00:01,15.73210241,0.0002487,53.2176,220.5663,23.3901,314.0384,0.00014039,0.00019137,0.0,0 STARLINK-3926,1 52543U 22051L   22148.58334491  .00019137  00000-0  14039-3 0  9994,2 52543  53.2176 220.5663 0002487  23.3901 314.0384 15.73210241  1301,6727.866,91.533,351.404,348.05800000000005,0.0
52543.0,STARLINK-3926,PAYLOAD,2022-05-28 22:00:00,15.73238022,0.00023,53.2171,218.9153,22.7416,43.6589,-0.00051072,-0.00071815,0.0,0 STARLINK-3926,1 52543U 22051L   22148.91667824 -.00071815  00000-0 -51072-3 0  9991,2 52543  53.2171 218.9153 0002300  22.7416  43.6589 15.73238022  2905,6727.7869999999975,91.531,351.199,348.10400000000016,0.0
52543.0,STARLINK-3926,PAYLOAD,2022-05-29 03:49:05,15.73241794,0.0002067,53.2172,217.7164,25.4836,334.6286,0.00068855,0.00097318,0.0,0 STARLINK-3926,1 52543U 22051L   22149.15909281  .00097318  00000-0  68855-3 0  9995,2 52543  53.2172 217.7164 0002067  25.4836 334.6286 15.73241794  2942,6727.776,91.531,351.032,348.25,0.0
52543.0,STARLINK-3926,PAYLOAD,2022-05-29 12:57:59,15.7318358,0.0002356,53.2172,215.8298,36.1185,323.9994,0.00055653,0.00078165,0.0,0 STARLINK-3926,1 52543U 22051L   22149.54026925  .00078165  00000-0  55653-3 0  9994,2 52543  53.2172 215.8298 0002356  36.1185 323.9994 15.73183580  3009,6727.941999999999,91.534,351.392,348.222,0.0
52543.0,STARLINK-3926,PAYLOAD,2022-05-29 20:00:01,15.7313016,0.0002367,53.2171,214.3802,13.8548,207.0147,-6.5202e-06,-1.533e-05,0.0,0 STARLINK-3926,1 52543U 22051L   22149.83334491 -.00001533  00000-0 -65202-5 0  9996,2 52543  53.2171 214.3802 0002367  13.8548 207.0147 15.73130160  3042,6728.094,91.537,351.552,348.367,0.0
52543.0,STARLINK-3926,PAYLOAD,2022-05-29 22:00:00,15.73113606,0.0002279,53.2173,213.9673,14.4762,318.6083,0.00031888,0.00044206,0.0,0 STARLINK-3926,1 52543U 22051L   22149.91667824  .00044206  00000-0  31888-3 0  9997,2 52543  53.2173 213.9673 0002279  14.4762 318.6083 15.73113606  1303,6728.141,91.538,351.54,348.473,0.0
52543.0,STARLINK-3926,PAYLOAD,2022-05-30 11:50:14,15.73160908,0.0002203,53.2174,211.114,8.668,351.4378,0.00019492,0.00026778,0.0,0 STARLINK-3926,1 52543U 22051L   22150.49322368  .00026778  00000-0  19492-3 0  9994,2 52543  53.2174 211.1140 0002203   8.6680 351.4378 15.73160908  3158,6728.007,91.535,351.35400000000016,348.389,0.0
52543.0,STARLINK-3926,PAYLOAD,2022-05-30 14:00:01,15.73221381,0.0002562,53.2171,210.6676,14.0867,136.6987,0.00033847,0.00047197,0.0,0 STARLINK-3926,1 52543U 22051L   22150.58334491  .00047197  00000-0  33847-3 0  9992,2 52543  53.2171 210.6676 0002562  14.0867 136.6987 15.73221381  1306,6727.834,91.532,351.423,347.976,0.0
52543.0,STARLINK-3926,PAYLOAD,2022-05-30 22:00:00,15.733359599999998,0.000239,53.217,209.0105,15.3858,224.3711,-0.0030363,-0.00409164,0.0,0 STARLINK-3926,1 52543U 22051L   22150.91667824 -.00409164  00000-0 -30363-2 0  9995,2 52543  53.2170 209.0105 0002390  15.3858 224.3711 15.73335960  3218,6727.5080000000025,91.525,350.98,347.765,0.0
52543.0,STARLINK-3926,PAYLOAD,2022-05-31 04:36:30,15.7324067,0.0002722,53.2175,207.657,3.7784,356.3256,0.00020642,0.000285,0.0,0 STARLINK-3926,1 52543U 22051L   22151.19202383  .00028500  00000-0  20642-3 0  9990,2 52543  53.2175 207.6570 0002722   3.7784 356.3256 15.73240670  3269,6727.779,91.531,351.476,347.81300000000016,0.0
52543.0,STARLINK-3926,PAYLOAD,2022-05-31 06:00:02,15.73174608,0.0002506,53.2171,207.355,12.099,316.6179,-0.0049533,-0.00644507,0.0,0 STARLINK-3926,1 52543U 22051L   22151.25002315 -.00644507  00000-0 -49533-2 0  9992,2 52543  53.2171 207.3550 0002506  12.0990 316.6179 15.73174608  1305,6727.968000000003,91.535,351.519,348.147,0.0
52543.0,STARLINK-3926,PAYLOAD,2022-05-31 13:45:28,15.72946148,0.0002781,53.2168,205.7706,346.396,13.6985,-0.0011972,-0.00163673,0.0,0 STARLINK-3926,1 52543U 22051L   22151.57325146 -.00163673  00000-0 -11972-2 0  9993,2 52543  53.2168 205.7706 0002781 346.3960  13.6985 15.72946148  3329,6728.619000000002,91.548,352.355,348.61300000000006,0.0
52543.0,STARLINK-3926,PAYLOAD,2022-05-31 22:00:00,15.72205295,0.0002559,53.2175,204.0551,15.7051,129.6092,-0.0057844,-0.00715846,0.0,0 STARLINK-3926,1 52543U 22051L   22151.91667824 -.00715846  00000-0 -57844-2 0  9996,2 52543  53.2175 204.0551 0002559  15.7051 129.6092 15.72205295  3371,6730.733,91.591,354.32,350.875,0.0
52543.0,STARLINK-3926,PAYLOAD,2022-06-01 20:00:01,15.70797444,0.0004033,53.2175,199.5286,300.4067,353.8495,-0.0060465,-0.00706125,0.0,0 STARLINK-3926,1 52543U 22051L   22152.83334491 -.00706125  00000-0 -60465-2 0  9992,2 52543  53.2175 199.5286 0004033 300.4067 353.8495 15.70797444  3518,6734.754,91.673,359.335,353.903,0.0
52543.0,STARLINK-3926,PAYLOAD,2022-06-03 02:50:18,15.69311287,0.0003612,53.2191,193.2216,288.9812,71.0814,-0.0012736,-0.0014971,0.0,0 STARLINK-3926,1 52543U 22051L   22154.11826934 -.00149710  00000-0 -12736-2 0  9992,2 52543  53.2191 193.2216 0003612 288.9812  71.0814 15.69311287  3722,6739.005,91.76,363.304,358.436,0.0
52543.0,STARLINK-3926,PAYLOAD,2022-06-03 12:00:42,15.68726904,0.0001162,53.2169,191.3404,237.7047,122.3859,-0.0035547,-0.00394947,0.0,0 STARLINK-3926,1 52543U 22051L   22154.50049071 -.00394947  00000-0 -35547-2 0  9993,2 52543  53.2169 191.3404 0001162 237.7047 122.3859 15.68726904  3785,6740.678000000001,91.794,363.327,361.76,0.0
52543.0,STARLINK-3926,PAYLOAD,2022-06-03 13:32:39,15.68129307,0.0001091,53.2168,191.0259,15.3821,344.723,-0.0059735,-0.00629286,0.0,0 STARLINK-3926,1 52543U 22051L   22154.56434888 -.00629286  00000-0 -59735-2 0  9995,2 52543  53.2168 191.0259 0001091  15.3821 344.7230 15.68129307  3798,6742.391,91.829,364.991,363.52,0.0
52543.0,STARLINK-3926,PAYLOAD,2022-06-04 01:46:58,15.67852552,0.0001641,53.2166,188.5187,51.6897,308.4268,-0.0016467,-0.00181386,0.0,0 STARLINK-3926,1 52543U 22051L   22155.07429163 -.00181386  00000-0 -16467-2 0  9991,2 52543  53.2166 188.5187 0001641  51.6897 308.4268 15.67852552  3875,6743.184,91.845,366.156,363.943,0.0
52543.0,STARLINK-3926,PAYLOAD,2022-06-04 10:57:26,15.68738224,0.0008001,53.2167,186.6382,296.2656,63.7539,0.0050688,0.00637321,0.0,0 STARLINK-3926,1 52543U 22051L   22155.45656059  .00637321  00000-0  50688-2 0  9995,2 52543  53.2167 186.6382 0008001 296.2656  63.7539 15.68738224  3938,6740.646,91.794,367.904,357.11800000000005,0.0
52543.0,STARLINK-3926,PAYLOAD,2022-06-05 22:00:00,15.64554924,0.0001064,53.2174,179.4778,83.4411,228.8839,-0.007903,-0.0071282,0.0,0 STARLINK-3926,1 52543U 22051L   22156.91667824 -.00712820  00000-0 -79030-2 0  9991,2 52543  53.2174 179.4778 0001064  83.4411 228.8839 15.64554924  4164,6752.656,92.039,375.24,373.80300000000005,0.0
52543.0,STARLINK-3926,PAYLOAD,2022-06-06 14:00:01,15.63537288,0.0001176,53.2171,176.2239,63.977,44.1966,-0.0082692,-0.00715989,0.0,0 STARLINK-3926,1 52543U 22051L   22157.58334491 -.00715989  00000-0 -82692-2 0  9993,2 52543  53.2171 176.2239 0001176  63.9770  44.1966 15.63537288  1309,6755.5859999999975,92.099,378.245,376.656,0.0
52543.0,STARLINK-3926,PAYLOAD,2022-06-06 22:00:00,15.63026337,0.000134,53.2171,174.5959,58.2795,126.9017,-0.0084183,-0.00714487,0.0,0 STARLINK-3926,1 52543U 22051L   22157.91667824 -.00714487  00000-0 -84183-2 0  9998,2 52543  53.2171 174.5959 0001340  58.2795 126.9017 15.63026337  4314,6757.058000000001,92.129,379.828,378.018,0.0
52543.0,STARLINK-3926,PAYLOAD,2022-06-07 14:00:01,15.62007852,0.0001068,53.2172,171.3495,73.1885,264.1646,-0.0087815,-0.00715892,0.0,0 STARLINK-3926,1 52543U 22051L   22158.58334491 -.00715892  00000-0 -87815-2 0  9999,2 52543  53.2172 171.3495 0001068  73.1885 264.1646 15.62007852  1307,6759.995,92.189,382.582,381.138,0.0
52543.0,STARLINK-3926,PAYLOAD,2022-06-07 22:00:00,15.61496053,0.0001181,53.2173,169.7252,53.3644,359.1588,-0.0089392,-0.00714478,0.0,0 STARLINK-3926,1 52543U 22051L   22158.91667824 -.00714478  00000-0 -89392-2 0  9996,2 52543  53.2173 169.7252 0001181  53.3644 359.1588 15.61496053  4474,6761.472,92.219,384.135,382.538,0.0
52543.0,STARLINK-3926,PAYLOAD,2022-06-08 14:00:01,15.60478326,0.0001273,53.2172,166.4859,67.5077,133.5108,-0.0093422,-0.00717521,0.0,0 STARLINK-3926,1 52543U 22051L   22159.58334491 -.00717521  00000-0 -93422-2 0  9992,2 52543  53.2172 166.4859 0001273  67.5077 133.5108 15.60478326  1302,6764.411,92.279,387.138,385.415,0.0
52543.0,STARLINK-3926,PAYLOAD,2022-06-08 22:00:01,15.59965723,0.0001286999999999,53.2174,164.8654,60.0352,214.3797,-0.0094635,-0.00713016,0.0,0 STARLINK-3926,1 52543U 22051L   22159.91668981 -.00713016  00000-0 -94635-2 0  9995,2 52543  53.2174 164.8654 0001287  60.0352 214.3797 15.59965723  4628,6765.893,92.31,388.629,386.887,0.0
52543.0,STARLINK-3926,PAYLOAD,2022-06-09 14:00:01,15.58947215,0.0001169,53.2171,161.6337,57.7279,1.4405,-0.00986,-0.00714311,0.0,0 STARLINK-3926,1 52543U 22051L   22160.58334491 -.00714311  00000-0 -98600-2 0  9991,2 52543  53.2171 161.6337 0001169  57.7279   1.4405 15.58947215  1306,6768.84,92.37,391.496,389.914,0.0
